{
    "links": {
        "self": "http://www.neowsapp.com/rest/v1/neo/3989292?api_key=iIulBulltgU6a56xZRHN4H3l9WmuAYTsLGpBGhQ2"
    },
    "id": "3989292",
    "neo_reference_id": "3989292",
    "name": "(2020 BE13)",
    "designation": "2020 BE13",
    "nasa_jpl_url": "http://ssd.jpl.nasa.gov/sbdb.cgi?sstr=3989292",
    "absolute_magnitude_h": 26.25,
    "estimated_diameter": {
        "kilometers": {
            "estimated_diameter_min": 0.0149470324,
            "estimated_diameter_max": 0.0334225806
        },
        "meters": {
            "estimated_diameter_min": 14.9470324236,
            "estimated_diameter_max": 33.422580561
        },
        "miles": {
            "estimated_diameter_min": 0.0092876525,
            "estimated_diameter_max": 0.0207678223
        },
        "feet": {
            "estimated_diameter_min": 49.0388218565,
            "estimated_diameter_max": 109.6541392077
        }
    },
    "is_potentially_hazardous_asteroid": false,
    "close_approach_data": [
        {
            "close_approach_date": "2020-01-21",
            "close_approach_date_full": "2020-Jan-21 20:08",
            "epoch_date_close_approach": 1579637280000,
            "relative_velocity": {
                "kilometers_per_second": "11.7645379165",
                "kilometers_per_hour": "42352.3364994198",
                "miles_per_hour": "26316.0948654312"
            },
            "miss_distance": {
                "astronomical": "0.0339817078",
                "lunar": "13.2188843342",
                "kilometers": "5083591.105842386",
                "miles": "3158797.0378054868"
            },
            "orbiting_body": "Earth"
        }
    ],
    "orbital_data": {
        "orbit_id": "1",
        "orbit_determination_date": "2020-01-30 13:12:43",
        "first_observation_date": "2020-01-28",
        "last_observation_date": "2020-01-30",
        "data_arc_in_days": 2,
        "observations_used": 27,
        "orbit_uncertainty": "8",
        "minimum_orbit_intersection": ".0334676",
        "jupiter_tisserand_invariant": "3.476",
        "epoch_osculation": "2458877.5",
        "eccentricity": ".5819692816557961",
        "semi_major_axis": "2.134209546605095",
        "inclination": "5.075230807001481",
        "ascending_node_longitude": "141.7651165724571",
        "orbital_period": "1138.817190490105",
        "perihelion_distance": ".8921651498643854",
        "perihelion_argument": "294.7222698660501",
        "aphelion_distance": "3.376253943345804",
        "perihelion_time": "2458838.032054758972",
        "mean_anomaly": "12.47650668203847",
        "mean_motion": ".3161174620529474",
        "equinox": "J2000",
        "orbit_class": {
            "orbit_class_type": "APO",
            "orbit_class_description": "Near-Earth asteroid orbits which cross the Earth’s orbit similar to that of 1862 Apollo",
            "orbit_class_range": "a (semi-major axis) > 1.0 AU; q (perihelion) < 1.017 AU"
        }
    },
    "is_sentry_object": false
}